{"crs": {"type": "name", "properties": {"name": "urn:ogc:def:crs:OGC:1.3:CRS84"}}, "type": "FeatureCollection", "features": [{"geometry": {"type": "Point", "coordinates": [8.406053396736096, 49.00766234352759]}, "type": "Feature", "properties": {"Nummer": 1, "Name": "Hans-Thoma-Schule", "Wahlbezirke": ["001-01", "001-02"], "Stra\u00dfe": "Kreuzstra\u00dfe", "PLZ": "76133", "Barrierefreiheit": "rollstuhlgerecht", "Hausnummer": "15"}}, {"geometry": {"type": "Point", "coordinates": [8.399956622474289, 49.0088857550845]}, "type": "Feature", "properties": {"Nummer": 3, "Name": "St\u00e4ndehaus", "Wahlbezirke": ["002-01"], "Stra\u00dfe": "St\u00e4ndehausstra\u00dfe", "PLZ": "76133", "Barrierefreiheit": "rollstuhlgerecht", "Hausnummer": "2"}}, {"geometry": {"type": "Point", "coordinates": [8.394981457204933, 49.01343824124457]}, "type": "Feature", "properties": {"Nummer": 4, "Name": "Bismarck-Gymnasium", "Wahlbezirke": ["002-02", "002-03"], "Stra\u00dfe": "Bismarckstra\u00dfe", "PLZ": "76133", "Barrierefreiheit": "nicht barrierefrei", "Hausnummer": "8"}}, {"geometry": {"type": "Point", "coordinates": [8.389895237643408, 49.00832718954806]}, "type": "Feature", "properties": {"Nummer": 5, "Name": "Leopoldschule", "Wahlbezirke": ["002-04", "002-05"], "Stra\u00dfe": "Leopoldstra\u00dfe", "PLZ": "76133", "Barrierefreiheit": "nicht barrierefrei", "Hausnummer": "9"}}, {"geometry": {"type": "Point", "coordinates": [8.406939862892521, 49.00251285982682]}, "type": "Feature", "properties": {"Nummer": 6, "Name": "Uhlandschule", "Wahlbezirke": ["003-01", "003-02", "003-03", "003-04"], "Stra\u00dfe": "Sch\u00fctzenstra\u00dfe", "PLZ": "76137", "Barrierefreiheit": "rollstuhlgerecht", "Hausnummer": "35"}}, {"geometry": {"type": "Point", "coordinates": [8.407707761654473, 48.99698443020752]}, "type": "Feature", "properties": {"Nummer": 7, "Name": "Nebeniusschule", "Wahlbezirke": ["003-06", "003-07", "003-08", "003-09"], "Stra\u00dfe": "Nebeniusstra\u00dfe", "PLZ": "76137", "Barrierefreiheit": "nicht barrierefrei", "Hausnummer": "22"}}, {"geometry": {"type": "Point", "coordinates": [8.396078111139452, 49.00358404095808]}, "type": "Feature", "properties": {"Nummer": 9, "Name": "Goethe-Gymnasium", "Wahlbezirke": ["004-01", "004-02", "004-03", "004-04"], "Stra\u00dfe": "Gartenstra\u00dfe", "PLZ": "76133", "Barrierefreiheit": "rollstuhlgerecht", "Hausnummer": "7"}}, {"geometry": {"type": "Point", "coordinates": [8.388443024663795, 48.99759359788876]}, "type": "Feature", "properties": {"Nummer": 10, "Name": "Kimmelmannschule", "Wahlbezirke": ["004-05", "004-07", "004-08"], "Stra\u00dfe": "S\u00fcdendstra\u00dfe", "PLZ": "76137", "Barrierefreiheit": "rollstuhlgerecht", "Hausnummer": "35"}}, {"geometry": {"type": "Point", "coordinates": [8.38391292814705, 49.010979053105984]}, "type": "Feature", "properties": {"Nummer": 14, "Name": "Helmholtz-Gymnasium", "Wahlbezirke": ["005-01", "005-02", "005-03"], "Stra\u00dfe": "Kaiserallee", "PLZ": "76133", "Barrierefreiheit": "rollstuhlgerecht", "Hausnummer": "6"}}, {"geometry": {"type": "Point", "coordinates": [8.374915273798324, 49.00794860689754]}, "type": "Feature", "properties": {"Nummer": 15, "Name": "Lessing-Gymnasium", "Wahlbezirke": ["005-04", "005-05", "005-06", "005-07", "005-08"], "Stra\u00dfe": "Sophienstra\u00dfe", "PLZ": "76135", "Barrierefreiheit": "rollstuhlgerecht", "Hausnummer": "147"}}, {"geometry": {"type": "Point", "coordinates": [8.367588965986057, 49.01502771357258]}, "type": "Feature", "properties": {"Nummer": 16, "Name": "Draisschule", "Wahlbezirke": ["005-12", "008-06", "008-07", "008-08"], "Stra\u00dfe": "Tristanstra\u00dfe", "PLZ": "76185", "Barrierefreiheit": "rollstuhlgerecht", "Hausnummer": "1"}}, {"geometry": {"type": "Point", "coordinates": [8.361517729978344, 49.02457597665472]}, "type": "Feature", "properties": {"Nummer": 19, "Name": "Rennbuckelschule", "Wahlbezirke": ["006-06", "006-07", "008-09"], "Stra\u00dfe": "Bonner Stra\u00dfe", "PLZ": "76185", "Barrierefreiheit": "nicht barrierefrei", "Hausnummer": "22"}}, {"geometry": {"type": "Point", "coordinates": [8.414710997569985, 49.00566506653645]}, "type": "Feature", "properties": {"Nummer": 2, "Name": "Friedrich-List-Schule", "Wahlbezirke": ["001-03", "003-05", "003-10", "007-01", "007-02"], "Stra\u00dfe": "Ludwig-Erhard-Allee", "PLZ": "76137", "Barrierefreiheit": "rollstuhlgerecht", "Hausnummer": "3"}}, {"geometry": {"type": "Point", "coordinates": [8.41950641132279, 49.00947935672852]}, "type": "Feature", "properties": {"Nummer": 20, "Name": "Heinrich-Meidinger-Schule", "Wahlbezirke": ["007-03", "007-04"], "Stra\u00dfe": "Bertholdstra\u00dfe", "PLZ": "76131", "Barrierefreiheit": "rollstuhlgerecht", "Hausnummer": "1"}}, {"geometry": {"type": "Point", "coordinates": [8.421788259205302, 49.01536540921826]}, "type": "Feature", "properties": {"Nummer": 21, "Name": "Seniorenzentrum", "Wahlbezirke": ["007-05"], "Stra\u00dfe": "Klosterweg", "PLZ": "76131", "Barrierefreiheit": "rollstuhlgerecht", "Hausnummer": "1"}}, {"geometry": {"type": "Point", "coordinates": [8.432331871194085, 49.009905324873394]}, "type": "Feature", "properties": {"Nummer": 23, "Name": "Lidellschule", "Wahlbezirke": ["007-06", "007-07", "007-08", "007-09", "007-10"], "Stra\u00dfe": "Tullastra\u00dfe", "PLZ": "76131", "Barrierefreiheit": "nicht barrierefrei", "Hausnummer": "57"}}, {"geometry": {"type": "Point", "coordinates": [8.363468854708994, 49.008627700233184]}, "type": "Feature", "properties": {"Nummer": 24, "Name": "Friedrich-Ebert-Schule", "Wahlbezirke": ["008-01", "008-02"], "Stra\u00dfe": "Staudingerstra\u00dfe", "PLZ": "76185", "Barrierefreiheit": "rollstuhlgerecht", "Hausnummer": "3"}}, {"geometry": {"type": "Point", "coordinates": [8.355099790540727, 49.01099367327974]}, "type": "Feature", "properties": {"Nummer": 25, "Name": "Vogesenschule", "Wahlbezirke": ["008-03", "008-04", "008-05"], "Stra\u00dfe": "Hardtstra\u00dfe", "PLZ": "76185", "Barrierefreiheit": "nicht barrierefrei", "Hausnummer": "1"}}, {"geometry": {"type": "Point", "coordinates": [8.333047111135482, 49.00499501553729]}, "type": "Feature", "properties": {"Nummer": 26, "Name": "GHS Daxlanden", "Wahlbezirke": ["009-01", "009-02", "009-03"], "Stra\u00dfe": "Pfalzstra\u00dfe", "PLZ": "76189", "Barrierefreiheit": "nicht barrierefrei", "Hausnummer": "8"}}, {"geometry": {"type": "Point", "coordinates": [8.339376052277153, 48.999321687395074]}, "type": "Feature", "properties": {"Nummer": 27, "Name": "Adam-Remmele-Schule", "Wahlbezirke": ["009-04", "009-05", "009-06", "009-07", "009-08"], "Stra\u00dfe": "August-Dosenbach-Stra\u00dfe", "PLZ": "76189", "Barrierefreiheit": "rollstuhlgerecht", "Hausnummer": "28"}}, {"geometry": {"type": "Point", "coordinates": [8.336458894969239, 49.032911605929016]}, "type": "Feature", "properties": {"Nummer": 28, "Name": "Grundschule Knielingen", "Wahlbezirke": ["010-01"], "Stra\u00dfe": "Eggensteiner Stra\u00dfe", "PLZ": "76187", "Barrierefreiheit": "nicht barrierefrei", "Hausnummer": "3"}}, {"geometry": {"type": "Point", "coordinates": [8.341175546883896, 49.033117374364515]}, "type": "Feature", "properties": {"Nummer": 30, "Name": "Viktor-von-Scheffel-Schule", "Wahlbezirke": ["010-03", "010-04", "010-05", "010-06"], "Stra\u00dfe": "Schulstra\u00dfe", "PLZ": "76187", "Barrierefreiheit": "nicht barrierefrei", "Hausnummer": "3"}}, {"geometry": {"type": "Point", "coordinates": [8.354317303094794, 49.004016997305726]}, "type": "Feature", "properties": {"Nummer": 31, "Name": "Feuerwehrhaus Gr\u00fcnwinkel", "Wahlbezirke": ["011-01"], "Stra\u00dfe": "Zeppelinstra\u00dfe", "PLZ": "76185", "Barrierefreiheit": "rollstuhlgerecht", "Hausnummer": "56"}}, {"geometry": {"type": "Point", "coordinates": [8.356403957075019, 49.00366488708499]}, "type": "Feature", "properties": {"Nummer": 32, "Name": "St\u00e4dtischer Sch\u00fclerhort", "Wahlbezirke": ["011-02"], "Stra\u00dfe": "Koelreuterstra\u00dfe", "PLZ": "76185", "Barrierefreiheit": "nicht barrierefrei", "Hausnummer": "7"}}, {"geometry": {"type": "Point", "coordinates": [8.354025225073869, 48.998838953950475]}, "type": "Feature", "properties": {"Nummer": 33, "Name": "Schule Gr\u00fcnwinkel", "Wahlbezirke": ["011-03", "011-04", "011-05", "011-06"], "Stra\u00dfe": "Hopfenstra\u00dfe", "PLZ": "76185", "Barrierefreiheit": "nicht barrierefrei", "Hausnummer": "18"}}, {"geometry": {"type": "Point", "coordinates": [8.351486334257727, 48.98966593174899]}, "type": "Feature", "properties": {"Nummer": 34, "Name": "Gastst\u00e4tte Siedlerheim", "Wahlbezirke": ["011-07"], "Stra\u00dfe": "Hohlohstra\u00dfe", "PLZ": "76189", "Barrierefreiheit": "rollstuhlgerecht", "Hausnummer": "100"}}, {"geometry": {"type": "Point", "coordinates": [8.365784551755668, 48.9883654611992]}, "type": "Feature", "properties": {"Nummer": 35, "Name": "Anne-Frank-Schule GHS", "Wahlbezirke": ["012-01", "012-02", "012-03", "012-04", "012-05"], "Stra\u00dfe": "Bonhoefferstra\u00dfe", "PLZ": "76189", "Barrierefreiheit": "rollstuhlgerecht", "Hausnummer": "12"}}, {"geometry": {"type": "Point", "coordinates": [8.386957910504435, 48.99283812683966]}, "type": "Feature", "properties": {"Nummer": 36, "Name": "Grund- und Hauptschule Beiertheim", "Wahlbezirke": ["013-01", "013-02", "013-03"], "Stra\u00dfe": "Marie-Alexandra-Stra\u00dfe", "PLZ": "76135", "Barrierefreiheit": "nicht barrierefrei", "Hausnummer": "51"}}, {"geometry": {"type": "Point", "coordinates": [8.379660997952632, 48.98847728236536]}, "type": "Feature", "properties": {"Nummer": 37, "Name": "Grundschule Bulach", "Wahlbezirke": ["013-04", "013-05"], "Stra\u00dfe": "Gr\u00fcnwinkler Stra\u00dfe", "PLZ": "76135", "Barrierefreiheit": "rollstuhlgerecht", "Hausnummer": "10"}}, {"geometry": {"type": "Point", "coordinates": [8.39252992145544, 48.98034452401112]}, "type": "Feature", "properties": {"Nummer": 38, "Name": "Weiherwaldschule", "Wahlbezirke": ["014-01", "014-02"], "Stra\u00dfe": "Scheibenhardter Weg", "PLZ": "76199", "Barrierefreiheit": "nicht barrierefrei", "Hausnummer": "23"}}, {"geometry": {"type": "Point", "coordinates": [8.39920803507832, 48.98484193464501]}, "type": "Feature", "properties": {"Nummer": 39, "Name": "Katholisches Jugendheim", "Wahlbezirke": ["014-03", "014-04"], "Stra\u00dfe": "Speyerer Stra\u00dfe", "PLZ": "76199", "Barrierefreiheit": "rollstuhlgerecht", "Hausnummer": "28"}}, {"geometry": {"type": "Point", "coordinates": [8.40971145919539, 48.98242272992181]}, "type": "Feature", "properties": {"Nummer": 40, "Name": "Wohnstift Karlsruhe e.V.", "Wahlbezirke": ["014-05"], "Stra\u00dfe": "Erlenweg", "PLZ": "76199", "Barrierefreiheit": "rollstuhlgerecht", "Hausnummer": "2"}}, {"geometry": {"type": "Point", "coordinates": [8.413002940343342, 48.974967329494696]}, "type": "Feature", "properties": {"Nummer": 41, "Name": "Eichelgartenschule", "Wahlbezirke": ["015-01", "015-02", "015-03"], "Stra\u00dfe": "Rosenweg", "PLZ": "76199", "Barrierefreiheit": "rollstuhlgerecht", "Hausnummer": "1"}}, {"geometry": {"type": "Point", "coordinates": [8.402638973874934, 48.9684990395776]}, "type": "Feature", "properties": {"Nummer": 42, "Name": "Riedschule R\u00fcppurr", "Wahlbezirke": ["015-04", "015-05", "015-06", "015-07", "015-08"], "Stra\u00dfe": "Riedstra\u00dfe", "PLZ": "76199", "Barrierefreiheit": "nicht barrierefrei", "Hausnummer": "11"}}, {"geometry": {"type": "Point", "coordinates": [8.44372310273457, 49.03249120610619]}, "type": "Feature", "properties": {"Nummer": 43, "Name": "Otto-Hahn-Gymnasium", "Wahlbezirke": ["016-01", "016-02"], "Stra\u00dfe": "Im Eichb\u00e4umle", "PLZ": "76139", "Barrierefreiheit": "rollstuhlgerecht", "Hausnummer": "1"}}, {"geometry": {"type": "Point", "coordinates": [8.446675537175519, 49.037262591610286]}, "type": "Feature", "properties": {"Nummer": 45, "Name": "Eichendorffschule", "Wahlbezirke": ["016-05", "016-06", "016-07"], "Stra\u00dfe": "L\u00f6tzener Stra\u00dfe", "PLZ": "76139", "Barrierefreiheit": "rollstuhlgerecht", "Hausnummer": "2"}}, {"geometry": {"type": "Point", "coordinates": [8.446796983486168, 49.012225582995256]}, "type": "Feature", "properties": {"Nummer": 47, "Name": "Schule am Weinweg", "Wahlbezirke": ["017-01"], "Stra\u00dfe": "Weinweg", "PLZ": "76131", "Barrierefreiheit": "rollstuhlgerecht", "Hausnummer": "1"}}, {"geometry": {"type": "Point", "coordinates": [8.45871093469844, 49.029456940959555]}, "type": "Feature", "properties": {"Nummer": 49, "Name": "Grundschule Hagsfeld", "Wahlbezirke": ["018-01", "018-02", "018-03"], "Stra\u00dfe": "Ruschgraben", "PLZ": "76139", "Barrierefreiheit": "rollstuhlgerecht", "Hausnummer": "17"}}, {"geometry": {"type": "Point", "coordinates": [8.454143857033701, 49.03456453274699]}, "type": "Feature", "properties": {"Nummer": 50, "Name": "B\u00fcrgerb\u00fcro Ost", "Wahlbezirke": ["018-04"], "Stra\u00dfe": "Beuthener Stra\u00dfe", "PLZ": "76139", "Barrierefreiheit": "rollstuhlgerecht", "Hausnummer": "42"}}, {"geometry": {"type": "Point", "coordinates": [8.460539941170229, 48.99969776185613]}, "type": "Feature", "properties": {"Nummer": 52, "Name": "Pestalozzischule Durlach", "Wahlbezirke": ["019-01", "019-02", "019-03", "019-13"], "Stra\u00dfe": "Christofstra\u00dfe", "PLZ": "76227", "Barrierefreiheit": "nicht barrierefrei", "Hausnummer": "23"}}, {"geometry": {"type": "Point", "coordinates": [8.46903288755858, 48.99957108540228]}, "type": "Feature", "properties": {"Nummer": 53, "Name": "Friedrich-Realschule (Pavillon)", "Wahlbezirke": ["019-04", "019-07"], "Stra\u00dfe": "Pfinztalstra\u00dfe", "PLZ": "76227", "Barrierefreiheit": "rollstuhlgerecht", "Hausnummer": "78"}}, {"geometry": {"type": "Point", "coordinates": [8.454593466878022, 48.991895040740296]}, "type": "Feature", "properties": {"Nummer": 56, "Name": "Oberwaldschule", "Wahlbezirke": ["019-14", "019-15", "019-16", "019-17", "019-18"], "Stra\u00dfe": "Grazer Stra\u00dfe", "PLZ": "76227", "Barrierefreiheit": "nicht barrierefrei", "Hausnummer": "9"}}, {"geometry": {"type": "Point", "coordinates": [8.44282968614893, 48.99065777927174]}, "type": "Feature", "properties": {"Nummer": 57, "Name": "Sch\u00fclerhort Kieselweg", "Wahlbezirke": ["019-19"], "Stra\u00dfe": "Kieselweg", "PLZ": "76227", "Barrierefreiheit": "rollstuhlgerecht", "Hausnummer": "42"}}, {"geometry": {"type": "Point", "coordinates": [8.468974578277113, 48.97084437453606]}, "type": "Feature", "properties": {"Nummer": 58, "Name": "Grundschule Bergwald", "Wahlbezirke": ["019-20"], "Stra\u00dfe": "Elsa-Br\u00e4ndstr\u00f6m-Stra\u00dfe", "PLZ": "76228", "Barrierefreiheit": "rollstuhlgerecht", "Hausnummer": "7"}}, {"geometry": {"type": "Point", "coordinates": [8.494951519281479, 49.0093035244372]}, "type": "Feature", "properties": {"Nummer": 59, "Name": "Feuerwehrger\u00e4tehaus", "Wahlbezirke": ["020-01"], "Stra\u00dfe": "Laubplatz", "PLZ": "76229", "Barrierefreiheit": "rollstuhlgerecht", "Hausnummer": "4"}}, {"geometry": {"type": "Point", "coordinates": [8.498171444228904, 49.00375065844566]}, "type": "Feature", "properties": {"Nummer": 61, "Name": "Augustenberg-Gemeinschaftsschule Gr\u00f6tzingen", "Wahlbezirke": ["020-03", "020-04"], "Stra\u00dfe": "Augustenburgstra\u00dfe", "PLZ": "76229", "Barrierefreiheit": "rollstuhlgerecht", "Hausnummer": "22"}}, {"geometry": {"type": "Point", "coordinates": [8.497091452938596, 49.011355312757864]}, "type": "Feature", "properties": {"Nummer": 63, "Name": "Kindertagesst\u00e4tte Obere Setz", "Wahlbezirke": ["020-05"], "Stra\u00dfe": "Obere Setz", "PLZ": "76229", "Barrierefreiheit": "rollstuhlgerecht", "Hausnummer": "1"}}, {"geometry": {"type": "Point", "coordinates": [8.507038227221551, 49.00753501583283]}, "type": "Feature", "properties": {"Nummer": 64, "Name": "Evangelischer Kindergarten Am Kegelsgrund", "Wahlbezirke": ["020-06"], "Stra\u00dfe": "Am Kegelsgrund", "PLZ": "76229", "Barrierefreiheit": "rollstuhlgerecht", "Hausnummer": "32"}}, {"geometry": {"type": "Point", "coordinates": [8.495178102516206, 49.00716571733804]}, "type": "Feature", "properties": {"Nummer": 65, "Name": "Begegnungsst\u00e4tte", "Wahlbezirke": ["020-02", "020-07"], "Stra\u00dfe": "Niddastra\u00dfe", "PLZ": "76229", "Barrierefreiheit": "rollstuhlgerecht", "Hausnummer": "9"}}, {"geometry": {"type": "Point", "coordinates": [8.510974892883477, 48.954232161728584]}, "type": "Feature", "properties": {"Nummer": 66, "Name": "Gemeindezentrum", "Wahlbezirke": ["021-01", "021-02", "021-03"], "Stra\u00dfe": "Werrenstra\u00dfe", "PLZ": "76228", "Barrierefreiheit": "rollstuhlgerecht", "Hausnummer": "16"}}, {"geometry": {"type": "Point", "coordinates": [8.477751058878304, 48.965397141743566]}, "type": "Feature", "properties": {"Nummer": 67, "Name": "Schule im Lustgarten", "Wahlbezirke": ["022-01", "022-02"], "Stra\u00dfe": "Kirchplatz", "PLZ": "76228", "Barrierefreiheit": "rollstuhlgerecht", "Hausnummer": "8"}}, {"geometry": {"type": "Point", "coordinates": [8.454552480671643, 48.97246489164476]}, "type": "Feature", "properties": {"Nummer": 68, "Name": "Hermann-Ringwald-Halle", "Wahlbezirke": ["023-03"], "Stra\u00dfe": "Schlossbergstra\u00dfe", "PLZ": "76228", "Barrierefreiheit": "rollstuhlgerecht", "Hausnummer": "12"}}, {"geometry": {"type": "Point", "coordinates": [8.452164019859136, 48.97484634308467]}, "type": "Feature", "properties": {"Nummer": 69, "Name": "Begegnungsst\u00e4tte Wolfartsweier", "Wahlbezirke": ["023-01", "023-02"], "Stra\u00dfe": "Rathausstra\u00dfe", "PLZ": "76228", "Barrierefreiheit": "rollstuhlgerecht", "Hausnummer": "2"}}, {"geometry": {"type": "Point", "coordinates": [8.466506736882062, 48.95774308942685]}, "type": "Feature", "properties": {"Nummer": 71, "Name": "Rathaus Gr\u00fcnwettersbach", "Wahlbezirke": ["024-01"], "Stra\u00dfe": "Am Wetterbach", "PLZ": "76228", "Barrierefreiheit": "nicht barrierefrei", "Hausnummer": "40"}}, {"geometry": {"type": "Point", "coordinates": [8.469221039965229, 48.95470547411362]}, "type": "Feature", "properties": {"Nummer": 72, "Name": "Kita Dorfwies (Pavillon)", "Wahlbezirke": ["024-02"], "Stra\u00dfe": "Zur Dorfwies", "PLZ": "76228", "Barrierefreiheit": "nicht barrierefrei", "Hausnummer": "1"}}, {"geometry": {"type": "Point", "coordinates": [8.477622189369983, 48.953686582881886]}, "type": "Feature", "properties": {"Nummer": 73, "Name": "Heinz-Barth-Schule", "Wahlbezirke": ["024-03", "024-04"], "Stra\u00dfe": "Esslinger Stra\u00dfe", "PLZ": "76228", "Barrierefreiheit": "rollstuhlgerecht", "Hausnummer": "2"}}, {"geometry": {"type": "Point", "coordinates": [8.482695133594559, 48.947262532298836]}, "type": "Feature", "properties": {"Nummer": 74, "Name": "Waldenser Grundschule Palmbach", "Wahlbezirke": ["025-01"], "Stra\u00dfe": "Kriegsstra\u00dfe", "PLZ": "76135", "Barrierefreiheit": "nicht barrierefrei", "Hausnummer": "141"}}, {"geometry": {"type": "Point", "coordinates": [8.48147847966024, 48.94525231919924]}, "type": "Feature", "properties": {"Nummer": 75, "Name": "Kita Wettersbach", "Wahlbezirke": ["025-02"], "Stra\u00dfe": "Henri-Arnaud-Stra\u00dfe", "PLZ": "76228", "Barrierefreiheit": "rollstuhlgerecht", "Hausnummer": "1"}}, {"geometry": {"type": "Point", "coordinates": [8.371748703968853, 49.04559292995788]}, "type": "Feature", "properties": {"Nummer": 76, "Name": "S\u00fcdschule Neureut", "Wahlbezirke": ["026-01", "026-02"], "Stra\u00dfe": "Welschneureuter Stra\u00dfe", "PLZ": "76149", "Barrierefreiheit": "rollstuhlgerecht", "Hausnummer": "14"}}, {"geometry": {"type": "Point", "coordinates": [8.378169126095745, 49.045446607609065]}, "type": "Feature", "properties": {"Nummer": 77, "Name": "Schulzentrum Neureut", "Wahlbezirke": ["026-03", "026-05"], "Stra\u00dfe": "Unterfeldstra\u00dfe", "PLZ": "76149", "Barrierefreiheit": "nicht barrierefrei", "Hausnummer": "6"}}, {"geometry": {"type": "Point", "coordinates": [8.379334292898749, 49.052561097122215]}, "type": "Feature", "properties": {"Nummer": 78, "Name": "Rathaus Neureut", "Wahlbezirke": ["026-04"], "Stra\u00dfe": "Neureuter Hauptstra\u00dfe", "PLZ": "76149", "Barrierefreiheit": "rollstuhlgerecht", "Hausnummer": "256"}}, {"geometry": {"type": "Point", "coordinates": [8.381351496886559, 49.05244912841798]}, "type": "Feature", "properties": {"Nummer": 80, "Name": "Nordschule Neureut", "Wahlbezirke": ["026-06", "026-07", "026-08"], "Stra\u00dfe": "Friedhofstra\u00dfe", "PLZ": "76149", "Barrierefreiheit": "rollstuhlgerecht", "Hausnummer": "1"}}, {"geometry": {"type": "Point", "coordinates": [8.399771795052754, 49.04789883000206]}, "type": "Feature", "properties": {"Nummer": 79, "Name": "Waldschule Neureut", "Wahlbezirke": ["026-09", "026-10", "026-13"], "Stra\u00dfe": "Moldaustra\u00dfe", "PLZ": "76149", "Barrierefreiheit": "rollstuhlgerecht", "Hausnummer": "37"}}, {"geometry": {"type": "Point", "coordinates": [8.386723875482529, 49.03226151280974]}, "type": "Feature", "properties": {"Nummer": 81, "Name": "Kindergarten Neureut-Heide", "Wahlbezirke": ["026-11", "026-12"], "Stra\u00dfe": "Flughafenstra\u00dfe", "PLZ": "76149", "Barrierefreiheit": "rollstuhlgerecht", "Hausnummer": "2"}}, {"geometry": {"type": "Point", "coordinates": [8.38834520915327, 49.026768333090416]}, "type": "Feature", "properties": {"Nummer": 82, "Name": "Marylandschule", "Wahlbezirke": ["027-01", "027-02", "027-03", "027-04", "027-05"], "Stra\u00dfe": "Rhode-Island-Allee", "PLZ": "76149", "Barrierefreiheit": "rollstuhlgerecht", "Hausnummer": "70"}}, {"geometry": {"type": "Point", "coordinates": [8.446785774987886, 49.04582616814789]}, "type": "Feature", "properties": {"Nummer": 46, "Name": "Europ\u00e4ische Schule", "Wahlbezirke": ["016-08"], "Stra\u00dfe": "Albert-Schweitzer-Stra\u00dfe", "PLZ": "76139", "Barrierefreiheit": "rollstuhlgerecht", "Hausnummer": "1"}}, {"geometry": {"type": "Point", "coordinates": [8.335589138063575, 49.032278423523785]}, "type": "Feature", "properties": {"Nummer": 29, "Name": "B\u00fcrgerverein Knielingen, Begegnungsst\u00e4tte", "Wahlbezirke": ["010-02"], "Stra\u00dfe": "Eggensteiner Stra\u00dfe", "PLZ": "76187", "Barrierefreiheit": "rollstuhlgerecht", "Hausnummer": "1"}}, {"geometry": {"type": "Point", "coordinates": [8.439606414451294, 49.0137484772744]}, "type": "Feature", "properties": {"Nummer": 48, "Name": "Tulla-Realschule", "Wahlbezirke": ["017-02", "017-03"], "Stra\u00dfe": "Forststra\u00dfe", "PLZ": "76131", "Barrierefreiheit": "rollstuhlgerecht", "Hausnummer": "4"}}, {"geometry": {"type": "Point", "coordinates": [8.454834027351827, 49.03439584997432]}, "type": "Feature", "properties": {"Nummer": 51, "Name": "AWO-Kiga \"Der Kleine Prinz\"", "Wahlbezirke": ["018-05"], "Stra\u00dfe": "Beuthener Stra\u00dfe", "PLZ": "76139", "Barrierefreiheit": "nicht barrierefrei", "Hausnummer": "40"}}, {"geometry": {"type": "Point", "coordinates": [8.473838072402918, 48.99883422245421]}, "type": "Feature", "properties": {"Nummer": 98, "Name": "Karlsburg", "Wahlbezirke": ["019-05", "019-08"], "Stra\u00dfe": "Pfinztalstra\u00dfe", "PLZ": "76227", "Barrierefreiheit": "rollstuhlgerecht", "Hausnummer": "9"}}, {"geometry": {"type": "Point", "coordinates": [8.477244732997418, 48.999058995959615]}, "type": "Feature", "properties": {"Nummer": 55, "Name": "Markgrafen-Gymnasium", "Wahlbezirke": ["019-06", "019-09", "019-10", "019-11", "019-12"], "Stra\u00dfe": "Gymnasiumstra\u00dfe", "PLZ": "76227", "Barrierefreiheit": "nicht barrierefrei", "Hausnummer": "3"}}, {"geometry": {"type": "Point", "coordinates": [8.377472966638006, 49.00440159113575]}, "type": "Feature", "properties": {"Nummer": 74, "Name": "Weinbrennerschule", "Wahlbezirke": ["004-13", "005-09", "005-10", "005-11"], "Stra\u00dfe": "Kriegsstra\u00dfe", "PLZ": "76135", "Barrierefreiheit": "rollstuhlgerecht", "Hausnummer": "141"}}, {"geometry": {"type": "Point", "coordinates": [8.43659093554603, 49.03084556950404]}, "type": "Feature", "properties": {"Nummer": 100, "Name": "Sch\u00fclerhort Ernst-Reuter-Schule", "Wahlbezirke": ["016-03", "016-04"], "Stra\u00dfe": "Tilsiter Stra\u00dfe", "PLZ": "76139", "Barrierefreiheit": "rollstuhlgerecht", "Hausnummer": "15"}}, {"geometry": {"type": "Point", "coordinates": [8.388466057033758, 48.99827471273458]}, "type": "Feature", "properties": {"Nummer": 10, "Name": "S\u00fcdendschule", "Wahlbezirke": ["004-06", "004-09", "004-10", "004-11", "004-12"], "Stra\u00dfe": "S\u00fcdendstra\u00dfe", "PLZ": "76137", "Barrierefreiheit": "rollstuhlgerecht", "Hausnummer": "35"}}, {"geometry": {"type": "Point", "coordinates": [8.369157194048249, 49.030820315690775]}, "type": "Feature", "properties": {"Nummer": 81, "Name": "Werner-von-Siemens-Schule", "Wahlbezirke": ["006-01", "006-02", "006-03", "006-04", "006-05"], "Stra\u00dfe": "Kurt-Schumacher-Stra\u00dfe", "PLZ": "76187", "Barrierefreiheit": "rollstuhlgerecht", "Hausnummer": "1"}}]}